[{"OBJECT_NAME":"STARLINK-1584","OBJECT_ID":"2020-055T","EPOCH":"2024-01-23T05:57:07.078176","MEAN_MOTION":15.06399846,"ECCENTRICITY":0.0001369,"INCLINATION":53.055,"RA_OF_ASC_NODE":12.1813,"ARG_OF_PERICENTER":95.6039,"MEAN_ANOMALY":264.5107,"EPHEMERIS_TYPE":0,"CLASSIFICATION_TYPE":"U","NORAD_CAT_ID":46044,"ELEMENT_SET_NO":999,"REV_AT_EPOCH":19186,"BSTAR":0.00019384,"MEAN_MOTION_DOT":2.607e-5,"MEAN_MOTION_DDOT":0},{"OBJECT_NAME":"STARLINK-1591","OBJECT_ID":"2020-055U","EPOCH":"2024-01-23T04:38:51.428256","MEAN_MOTION":15.06396303,"ECCENTRICITY":0.0001326,"INCLINATION":53.0548,"RA_OF_ASC_NODE":12.442,"ARG_OF_PERICENTER":87.509,"MEAN_ANOMALY":272.605,"EPHEMERIS_TYPE":0,"CLASSIFICATION_TYPE":"U","NORAD_CAT_ID":46045,"ELEMENT_SET_NO":999,"REV_AT_EPOCH":19183,"BSTAR":-0.00017448,"MEAN_MOTION_DOT":-2.879e-5,"MEAN_MOTION_DDOT":0},{"OBJECT_NAME":"STARLINK-1524","OBJECT_ID":"2020-055W","EPOCH":"2024-01-23T05:06:43.712352","MEAN_MOTION":15.06399486,"ECCENTRICITY":0.0001336,"INCLINATION":53.0554,"RA_OF_ASC_NODE":2.3568,"ARG_OF_PERICENTER":110.4144,"MEAN_ANOMALY":249.6989,"EPHEMERIS_TYPE":0,"CLASSIFICATION_TYPE":"U","NORAD_CAT_ID":46047,"ELEMENT_SET_NO":999,"REV_AT_EPOCH":19199,"BSTAR":0.00046271,"MEAN_MOTION_DOT":6.617e-5,"MEAN_MOTION_DDOT":0},{"OBJECT_NAME":"STARLINK-1527","OBJECT_ID":"2020-055X","EPOCH":"2024-01-23T05:01:25.230720","MEAN_MOTION":15.06400175,"ECCENTRICITY":0.0001505,"INCLINATION":53.0552,"RA_OF_ASC_NODE":2.3751,"ARG_OF_PERICENTER":129.3419,"MEAN_ANOMALY":230.7703,"EPHEMERIS_TYPE":0,"CLASSIFICATION_TYPE":"U","NORAD_CAT_ID":46048,"ELEMENT_SET_NO":999,"REV_AT_EPOCH":19197,"BSTAR":0.00049412,"MEAN_MOTION_DOT":7.086e-5,"MEAN_MOTION_DDOT":0},{"OBJECT_NAME":"STARLINK-1530","OBJECT_ID":"2020-055Y","EPOCH":"2024-01-23T04:56:06.930528","MEAN_MOTION":15.06408761,"ECCENTRICITY":0.0001482,"INCLINATION":53.056,"RA_OF_ASC_NODE":2.3893,"ARG_OF_PERICENTER":90.3461,"MEAN_ANOMALY":269.7698,"EPHEMERIS_TYPE":0,"CLASSIFICATION_TYPE":"U","NORAD_CAT_ID":46049,"ELEMENT_SET_NO":999,"REV_AT_EPOCH":19200,"BSTAR":0.00074075,"MEAN_MOTION_DOT":0.00010772,"MEAN_MOTION_DDOT":0},{"OBJECT_NAME":"STARLINK-1540","OBJECT_ID":"2020-055AA","EPOCH":"2024-01-23T05:49:11.367552","MEAN_MOTION":15.06396971,"ECCENTRICITY":0.0001472,"INCLINATION":53.0552,"RA_OF_ASC_NODE":2.2241,"ARG_OF_PERICENTER":95.4819,"MEAN_ANOMALY":264.6338,"EPHEMERIS_TYPE":0,"CLASSIFICATION_TYPE":"U","NORAD_CAT_ID":46051,"ELEMENT_SET_NO":999,"REV_AT_EPOCH":19201,"BSTAR":5.2752e-5,"MEAN_MOTION_DOT":5.04e-6,"MEAN_MOTION_DDOT":0},{"OBJECT_NAME":"STARLINK-1541","OBJECT_ID":"2020-055AB","EPOCH":"2024-01-23T05:27:57.405600","MEAN_MOTION":15.06397078,"ECCENTRICITY":0.0001309,"INCLINATION":53.0552,"RA_OF_ASC_NODE":2.2881,"ARG_OF_PERICENTER":104.9305,"MEAN_ANOMALY":255.1829,"EPHEMERIS_TYPE":0,"CLASSIFICATION_TYPE":"U","NORAD_CAT_ID":46052,"ELEMENT_SET_NO":999,"REV_AT_EPOCH":19197,"BSTAR":2.53e-5,"MEAN_MOTION_DOT":9.5e-7,"MEAN_MOTION_DDOT":0},{"OBJECT_NAME":"STARLINK-1543","OBJECT_ID":"2020-055AC","EPOCH":"2024-01-23T03:57:43.186752","MEAN_MOTION":15.06396852,"ECCENTRICITY":0.0001927,"INCLINATION":53.0555,"RA_OF_ASC_NODE":2.5589,"ARG_OF_PERICENTER":126.5936,"MEAN_ANOMALY":233.5231,"EPHEMERIS_TYPE":0,"CLASSIFICATION_TYPE":"U","NORAD_CAT_ID":46053,"ELEMENT_SET_NO":999,"REV_AT_EPOCH":19199,"BSTAR":5.076e-5,"MEAN_MOTION_DOT":4.74e-6,"MEAN_MOTION_DDOT":0},{"OBJECT_NAME":"STARLINK-1548","OBJECT_ID":"2020-055AD","EPOCH":"2024-01-23T04:08:20.219136","MEAN_MOTION":15.06401978,"ECCENTRICITY":0.000137,"INCLINATION":53.0555,"RA_OF_ASC_NODE":2.5392,"ARG_OF_PERICENTER":109.1231,"MEAN_ANOMALY":250.9906,"EPHEMERIS_TYPE":0,"CLASSIFICATION_TYPE":"U","NORAD_CAT_ID":46054,"ELEMENT_SET_NO":999,"REV_AT_EPOCH":19199,"BSTAR":0.00032938,"MEAN_MOTION_DOT":4.628e-5,"MEAN_MOTION_DDOT":0},{"OBJECT_NAME":"STARLINK-1554","OBJECT_ID":"2020-055AE","EPOCH":"2024-01-23T05:22:38.872128","MEAN_MOTION":15.0639543,"ECCENTRICITY":0.0001448,"INCLINATION":53.0562,"RA_OF_ASC_NODE":2.31,"ARG_OF_PERICENTER":105.7268,"MEAN_ANOMALY":254.3881,"EPHEMERIS_TYPE":0,"CLASSIFICATION_TYPE":"U","NORAD_CAT_ID":46055,"ELEMENT_SET_NO":999,"REV_AT_EPOCH":19200,"BSTAR":-3.4061e-5,"MEAN_MOTION_DOT":-7.89e-6,"MEAN_MOTION_DDOT":0},{"OBJECT_NAME":"STARLINK-1564","OBJECT_ID":"2020-055AH","EPOCH":"2024-01-23T06:03:44.993376","MEAN_MOTION":15.06394732,"ECCENTRICITY":0.0001301,"INCLINATION":53.0556,"RA_OF_ASC_NODE":2.1321,"ARG_OF_PERICENTER":91.8393,"MEAN_ANOMALY":268.2745,"EPHEMERIS_TYPE":0,"CLASSIFICATION_TYPE":"U","NORAD_CAT_ID":46058,"ELEMENT_SET_NO":999,"REV_AT_EPOCH":19200,"BSTAR":0.0001106,"MEAN_MOTION_DOT":1.366e-5,"MEAN_MOTION_DDOT":0},{"OBJECT_NAME":"STARLINK-1570","OBJECT_ID":"2020-055AJ","EPOCH":"2024-01-23T03:09:57.954528","MEAN_MOTION":15.06393389,"ECCENTRICITY":0.0001606,"INCLINATION":53.0559,"RA_OF_ASC_NODE":2.724,"ARG_OF_PERICENTER":96.2775,"MEAN_ANOMALY":263.8397,"EPHEMERIS_TYPE":0,"CLASSIFICATION_TYPE":"U","NORAD_CAT_ID":46059,"ELEMENT_SET_NO":999,"REV_AT_EPOCH":19194,"BSTAR":0.00012901,"MEAN_MOTION_DOT":1.64e-5,"MEAN_MOTION_DDOT":0},{"OBJECT_NAME":"STARLINK-1572","OBJECT_ID":"2020-055AK","EPOCH":"2024-01-23T06:15:44.262144","MEAN_MOTION":15.06392822,"ECCENTRICITY":0.0001448,"INCLINATION":53.0551,"RA_OF_ASC_NODE":2.1442,"ARG_OF_PERICENTER":90.4687,"MEAN_ANOMALY":269.6468,"EPHEMERIS_TYPE":0,"CLASSIFICATION_TYPE":"U","NORAD_CAT_ID":46060,"ELEMENT_SET_NO":999,"REV_AT_EPOCH":19197,"BSTAR":9.717e-5,"MEAN_MOTION_DOT":1.166e-5,"MEAN_MOTION_DDOT":0},{"OBJECT_NAME":"STARLINK-1573","OBJECT_ID":"2020-055AL","EPOCH":"2024-01-23T06:10:26.640192","MEAN_MOTION":15.06387065,"ECCENTRICITY":0.0001327,"INCLINATION":53.0565,"RA_OF_ASC_NODE":2.1968,"ARG_OF_PERICENTER":85.1857,"MEAN_ANOMALY":274.9284,"EPHEMERIS_TYPE":0,"CLASSIFICATION_TYPE":"U","NORAD_CAT_ID":46061,"ELEMENT_SET_NO":999,"REV_AT_EPOCH":19200,"BSTAR":0.00013829,"MEAN_MOTION_DOT":1.778e-5,"MEAN_MOTION_DDOT":0},{"OBJECT_NAME":"STARLINK-1574","OBJECT_ID":"2020-055AM","EPOCH":"2024-01-23T05:17:20.683392","MEAN_MOTION":15.06397799,"ECCENTRICITY":0.0001369,"INCLINATION":53.0564,"RA_OF_ASC_NODE":2.321,"ARG_OF_PERICENTER":104.3282,"MEAN_ANOMALY":255.7859,"EPHEMERIS_TYPE":0,"CLASSIFICATION_TYPE":"U","NORAD_CAT_ID":46062,"ELEMENT_SET_NO":999,"REV_AT_EPOCH":19196,"BSTAR":8.7269e-5,"MEAN_MOTION_DOT":1.019e-5,"MEAN_MOTION_DDOT":0},{"OBJECT_NAME":"STARLINK-1577","OBJECT_ID":"2020-055AN","EPOCH":"2024-01-23T05:12:01.671264","MEAN_MOTION":15.0640642,"ECCENTRICITY":0.0001279,"INCLINATION":53.0559,"RA_OF_ASC_NODE":2.3382,"ARG_OF_PERICENTER":117.2683,"MEAN_ANOMALY":242.8436,"EPHEMERIS_TYPE":0,"CLASSIFICATION_TYPE":"U","NORAD_CAT_ID":46063,"ELEMENT_SET_NO":999,"REV_AT_EPOCH":19199,"BSTAR":0.00028474,"MEAN_MOTION_DOT":3.963e-5,"MEAN_MOTION_DDOT":0},{"OBJECT_NAME":"STARLINK-1583","OBJECT_ID":"2020-055AP","EPOCH":"2024-01-23T05:59:48.500160","MEAN_MOTION":15.06399689,"ECCENTRICITY":0.0001385,"INCLINATION":53.0547,"RA_OF_ASC_NODE":2.1905,"ARG_OF_PERICENTER":90.4256,"MEAN_ANOMALY":269.6891,"EPHEMERIS_TYPE":0,"CLASSIFICATION_TYPE":"U","NORAD_CAT_ID":46064,"ELEMENT_SET_NO":999,"REV_AT_EPOCH":19200,"BSTAR":0.00025019,"MEAN_MOTION_DOT":3.447e-5,"MEAN_MOTION_DDOT":0}]
