STARLINK-1584           
1 46044U 20055T   24023.24799859  .00002607  00000+0  19384-3 0  9996
2 46044  53.0550  12.1813 0001369  95.6039 264.5107 15.06399846191866
STARLINK-1591           
1 46045U 20055U   24023.19365079 -.00002879  00000+0 -17448-3 0  9996
2 46045  53.0548  12.4420 0001326  87.5090 272.6050 15.06396303191830
STARLINK-1524           
1 46047U 20055W   24023.21300593  .00006617  00000+0  46271-3 0  9999
2 46047  53.0554   2.3568 0001336 110.4144 249.6989 15.06399486191994
STARLINK-1527           
1 46048U 20055X   24023.20931980  .00007086  00000+0  49412-3 0  9990
2 46048  53.0552   2.3751 0001505 129.3419 230.7703 15.06400175191970
STARLINK-1530           
1 46049U 20055Y   24023.20563577  .00010772  00000+0  74075-3 0  9993
2 46049  53.0560   2.3893 0001482  90.3461 269.7698 15.06408761192004
STARLINK-1540           
1 46051U 20055AA  24023.24249268  .00000504  00000+0  52752-4 0  9999
2 46051  53.0552   2.2241 0001472  95.4819 264.6338 15.06396971192011
STARLINK-1541           
1 46052U 20055AB  24023.22774775  .00000095  00000+0  25300-4 0  9998
2 46052  53.0552   2.2881 0001309 104.9305 255.1829 15.06397078191970
STARLINK-1543           
1 46053U 20055AC  24023.16508318  .00000474  00000+0  50760-4 0  9999
2 46053  53.0555   2.5589 0001927 126.5936 233.5231 15.06396852191996
STARLINK-1548           
1 46054U 20055AD  24023.17245624  .00004628  00000+0  32938-3 0  9990
2 46054  53.0555   2.5392 0001370 109.1231 250.9906 15.06401978191994
STARLINK-1554           
1 46055U 20055AE  24023.22406102 -.00000789  00000+0 -34061-4 0  9993
2 46055  53.0562   2.3100 0001448 105.7268 254.3881 15.06395430192004
STARLINK-1564           
1 46058U 20055AH  24023.25260409  .00001366  00000+0  11060-3 0  9990
2 46058  53.0556   2.1321 0001301  91.8393 268.2745 15.06394732192002
STARLINK-1570           
1 46059U 20055AJ  24023.13192077  .00001640  00000+0  12901-3 0  9993
2 46059  53.0559   2.7240 0001606  96.2775 263.8397 15.06393389191946
STARLINK-1572           
1 46060U 20055AK  24023.26092896  .00001166  00000+0  97170-4 0  9992
2 46060  53.0551   2.1442 0001448  90.4687 269.6468 15.06392822191977
STARLINK-1573           
1 46061U 20055AL  24023.25725278  .00001778  00000+0  13829-3 0  9996
2 46061  53.0565   2.1968 0001327  85.1857 274.9284 15.06387065192005
STARLINK-1574           
1 46062U 20055AM  24023.22037828  .00001019  00000+0  87269-4 0  9999
2 46062  53.0564   2.3210 0001369 104.3282 255.7859 15.06397799191963
STARLINK-1577           
1 46063U 20055AN  24023.21668601  .00003963  00000+0  28474-3 0  9990
2 46063  53.0559   2.3382 0001279 117.2683 242.8436 15.06406420191999
STARLINK-1583           
1 46064U 20055AP  24023.24986690  .00003447  00000+0  25019-3 0  9994
2 46064  53.0547   2.1905 0001385  90.4256 269.6891 15.06399689192005
